[Satellite]
VERSION=1.1
NAME=STARLINK-1374
NICKNAME=STARLINK-1374
TLE1=1 45545U 20025Q   20141.91667824  .04623010  00000-0  64708-1 0  9995
TLE2=2 45545  53.0009 261.4817 0003807  24.1331 302.7146 15.52492335  5123
STATUS=0
